Category,Companies,Description,Additional Info,Location,City,Additional Info 2,Contact,Companies_full,url,Latitude,Longitude,Latitude_City,Longitude_City
Approved commercial treatment centres,Adelaide commercial site,,,,Adelaide,,,,,46.3144754,11.0480288,46.3144754,11.0480288
TGA licensed GMP facilities (and process development),Biocina,Plasmid DNA,https://biocina.com/,,Adelaide,,Mark Womack,,https://biocina.com/,46.3144754,11.0480288,46.3144754,11.0480288
Institutions treating patients with CGT pharmaceuticals,Royal Adelaide Hospital/Central Adelaide Local Health Network,,"CAR T, virus specific T cells, MSC, iPSC-MSC, hemophilia GT, allo CAR T, GT OA",,Adelaide,"Prof Michael Brown, Prof Rajiv Khanna, Daniel Chambers, Kilian Kelly, John Rasko, Aditi Mehta, Alison Heald","Prof Michael Brown, Prof Rajiv Khanna, Daniel Chambers, Kilian Kelly, John Rasko, Aditi Mehta, Alison Heald",,,46.3144754,11.0480288,46.3144754,11.0480288
Government representatives,SA,,Invest SA,,Adelaide,"Director, Health and Medical Industries",Mark Wheeler,,,46.3144754,11.0480288,46.3144754,11.0480288
Government representatives,SA,,SA Health,,Adelaide,Executive Director Health Services Programs and Funding,Helen Chalmers,,,46.3144754,11.0480288,46.3144754,11.0480288
Government representatives,SA,,SA Health,,Adelaide,"Executive Director, Quality, Information and Performance",Michele McKinnon,,,46.3144754,11.0480288,46.3144754,11.0480288
Institutions treating patients with CGT pharmaceuticals,Southern Oncology Clinical Research Unit (SOCRU)/Cancer Research SA (CRSA),,Adoptive cell therapy,,Adelaide,"Rohit Joshi, MD","Rohit Joshi, MD",,,46.3144754,11.0480288,46.3144754,11.0480288
Research facilities,University of Adelaide,,Sean McColl/Carina,,Adelaide,,Shaun McColl,,,46.3144754,11.0480288,46.3144754,11.0480288
,Agilex Biolabs Pty Ltd,,,"31 Dalgleish Street, Thebarton SA 5031",Adelaide,,,Agilex Biolabs Pty Ltd,https://www.agilexbiolabs.com/,-34.91202995,138.5697751,46.3144754,11.0480288
,Sementis Limited,,,"25 North Terrace, Hackney SA, 5069, Australia",Adelaide,,,Sementis Limited,http://www.sementis.com.au/,-34.9194641,138.6152883,46.3144754,11.0480288
,AlphaRET,,,"107 Rundle Street, Kent Town SA 5067",Adelaide,,,AlphaRET,https://nova-eye.com/company/alpharet/,-34.9202679,138.6188232,46.3144754,11.0480288
,LBT Innovations,,,"16 Anster St, Adelaide SA 5000",Adelaide,,,LBT Innovations,http://www.lbtinnovations.com/,-34.9254796,138.5983449,46.3144754,11.0480288
,RSM Australia,,,"2/191 Pulteney St, Adelaide SA 5000",Adelaide,,,RSM Australia,,-34.9338854,138.6064105,46.3144754,11.0480288
,Bellberry Limited,,,"123 Glen Osmond Road Eastwood Adelaide, South Australia 5063",Adelaide,,,Bellberry Limited,http://www.bellberry.com.au/,-34.9406421,138.6160258,46.3144754,11.0480288
,"Innovation & Commercialisation Services, The University of Adelaide",,,,Adelaide,,,"Innovation & Commercialisation Services, The University of Adelaide",http://www.adelaide.edu.au/ics,46.3144754,11.0480288,46.3144754,11.0480288
,University of South Australia - Enterprise Partnership Unit,,,,Adelaide,,,University of South Australia - Enterprise Partnership Unit,https://www.unisa.edu.au/,46.3144754,11.0480288,46.3144754,11.0480288
,Harvest Integrated Research Organization Australia Pty Limited (HiRO),,,"20 Customs Street East, Auckland CBD, Auckland 1010, New Zealand",Auckland,,,Harvest Integrated Research Organization Australia Pty Limited (HiRO),,-36.8449444,174.7682818,46.3144754,11.0480288
,Roche Australia,,,"98 Carlton Gore Road, Auckland 1023, Newmarket, New Zealand",Auckland,,,Roche Australia,,-36.8648977,174.7757318,46.3144754,11.0480288
,Immutep Limited,,,"Glinkastr. 28, 10117 Berlin Germany",Berlin,,,Immutep Limited,,52.513966,13.3864463,52.513966,13.3864463
Cell and Tissue repositories,Australian Red Cross Lifeblood,,,,Brisbane,,Rebecca Griffiths,,,46.3144754,11.0480288,46.3144754,11.0480288
Clinical CRO,CryoPDP,,www.cryopdp.com,,Brisbane,,Kim Alexander,,www.cryopdp.com,46.3144754,11.0480288,46.3144754,11.0480288
Companies developing Advanced Medicines,Cyteph,Allogeneic CMV+ VSTs,https://cyteph.bio/,,Brisbane,,Rajiv Khanna,,https://cyteph.bio/,46.3144754,11.0480288,46.3144754,11.0480288
,"Department of State Development, Infrastructure, Local Government & Planning (QLD)",,,,Brisbane,,,"Department of State Development, Infrastructure, Local Government & Planning (QLD)",http://www.dsdmip.qld.gov.au/,46.3144754,11.0480288,46.3144754,11.0480288
Non cell therapy manufacture applications,Gelomics,"3D tissue culture models in a matter of minutes.
Reproducible, cost-effective, and highly predictive of human biology",https://www.gelomics.com/,,Brisbane,,,,https://www.gelomics.com/,46.3144754,11.0480288,46.3144754,11.0480288
Clinical CRO,Genomics for Life,"organoid pathology service, genetic testing",https://www.genomicsforlife.com.au/,,Brisbane,,,,https://www.genomicsforlife.com.au/,46.3144754,11.0480288,46.3144754,11.0480288
Institutions treating patients with CGT pharmaceuticals,Greenslopes Private Hospital/Gallipoli Medical Research Foundation,,Adoptive cell therapy,,Brisbane,"Rohit Joshi, MD","Rohit Joshi, MD",,,46.3144754,11.0480288,46.3144754,11.0480288
Institutions treating patients with CGT pharmaceuticals,Griffith University,,T cells Multiple Schlerosis,,Brisbane,"Kiren Kresa-Reahl, MD","Kiren Kresa-Reahl, MD",,,46.3144754,11.0480288,46.3144754,11.0480288
Non cell therapy manufacture applications,Heuros,Technology for cultured meat products,https://www.heuros.com/,,Brisbane,,,,https://www.heuros.com/,46.3144754,11.0480288,46.3144754,11.0480288
Institutions treating patients with CGT pharmaceuticals,Lady Cilento Children's Hospital,,CAR T,,Brisbane,Dr Kenneth Micklethwaite,Dr Kenneth Micklethwaite,,,46.3144754,11.0480288,46.3144754,11.0480288
Research facilities,Mater Research Institute,"CAR T cells in relapsed/refractory lymphoma, virus specific T cells",Maher Gandhi,,Brisbane,,Maher Gandhi,,,46.3144754,11.0480288,46.3144754,11.0480288
non TGA licensed phase 0/1 manufacture facilities,National Biologics Facility,process development and Phase I manufacture,https://www.nationalbiologicsfacility.com/,,Brisbane,,,,https://www.nationalbiologicsfacility.com/,46.3144754,11.0480288,46.3144754,11.0480288
Institutions treating patients with CGT pharmaceuticals,Princess Alexandra Hospital,,"dendritic cells, virus specific T cells, CAR T, GT OA",,Brisbane,"Prof Rajiv Khanna, Prof Maher Gandhi","Prof Rajiv Khanna, Prof Maher Gandhi",,,46.3144754,11.0480288,46.3144754,11.0480288
Supporting initiatives,QCIF,bioinformatics and biostatistics support for life science and health researchers,https://www.qcif.edu.au/bioinformatics-and-biostatistics/,,Brisbane,,,,https://www.qcif.edu.au/bioinformatics-and-biostatistics/,46.3144754,11.0480288,46.3144754,11.0480288
TGA licensed GMP facilities (and process development),Q-Gen Cell Therapies,,,,Brisbane,,,,,46.3144754,11.0480288,46.3144754,11.0480288
Process development only facilities,Q-Gen Translational Research Institute,GMP in 2025,https://www.tri.edu.au/translationalmanufacturing,,Brisbane,,David Crowley?,,https://www.tri.edu.au/translationalmanufacturing,46.3144754,11.0480288,46.3144754,11.0480288
Research facilities,"QIMR Berghofer Medical Research Institute, Q-Gen",,Siok Tey,,Brisbane,,Siok Tey,,,46.3144754,11.0480288,46.3144754,11.0480288
Government representatives,QLD,,"Department of State Development, Infrastructure, Local Government and Planning",,Brisbane,Executive Director,Denise Johnston,,,46.3144754,11.0480288,46.3144754,11.0480288
Institutions treating patients with CGT pharmaceuticals,Queensland Childrens Hospital,,virus specific T cells,,Brisbane,,,,,46.3144754,11.0480288,46.3144754,11.0480288
Cell and Tissue repositories,Queensland Cord Blood Bank (QCBB) - Mater (AusCord),,,,Brisbane,,Philip Johnson,,,46.3144754,11.0480288,46.3144754,11.0480288
Research facilities,Queensland Immunology Research Centre,,,,Brisbane,,,,,46.3144754,11.0480288,46.3144754,11.0480288
Cell and Tissue repositories,Queensland Tissue Bank,,https://metrosouth.health.qld.gov.au/news/queensland-tissue-bank-now-the-largest-and-most-diverse-tissue-bank-in-australia,,Brisbane,,,,https://metrosouth.health.qld.gov.au/news/queensland-tissue-bank-now-the-largest-and-most-diverse-tissue-bank-in-australia,46.3144754,11.0480288,46.3144754,11.0480288
Institutions treating patients with CGT pharmaceuticals,Royal Brisbane & Womens Hospital,,"virus specific T cells, CAR T, T cells Multiple Schlerosis, hemophilia GT, allo CAR T, allo CAR NK, GMP dermal grafting",,Brisbane,"Prof Rajiv Khanna, Dr Siok Tey, Jason Brown","Prof Rajiv Khanna, Dr Siok Tey, Jason Brown",,,46.3144754,11.0480288,46.3144754,11.0480288
Approved commercial treatment centres,Royal Brisbane & Women's Hospital,,,,Brisbane,,,,,46.3144754,11.0480288,46.3144754,11.0480288
Institutions treating patients with CGT pharmaceuticals,Royal Brisbane Hospital,,MSC,,Brisbane,Christopher James,Christopher James,,,46.3144754,11.0480288,46.3144754,11.0480288
Advanced Medicine tools providers - with physical presence in Australia,Sartorius,"growth factors, cytokines, media, process development, bioreactor, fill-finish",https://www.sartorius.com/en,,Brisbane,,Ali Abdelghany,,https://www.sartorius.com/en,46.3144754,11.0480288,46.3144754,11.0480288
Advanced Medicine tools providers - with physical presence in Australia,TissueGnostics,"spatial phenotyping, single cell analysis, molecular single cell profiling, machine-learning based tissue classification",https://tissuegnostics.com/,,Brisbane,,,,https://tissuegnostics.com/,46.3144754,11.0480288,46.3144754,11.0480288
Research facilities,University of Queensland,"brain imaging, National biologics facility",David Reutens,,Brisbane,,,,,46.3144754,11.0480288,46.3144754,11.0480288
,Sanofi ANZ,,,"87 Yarraman Place, Virginia QLD 4014",Brisbane,,,Sanofi ANZ,,-27.37971,153.0616824,46.3144754,11.0480288
,Corematic,,,"4/26 Navigator Place, Hendra QLD 4011",Brisbane,,,Corematic,https://corematic.com.au/,-27.4139572,153.074922,46.3144754,11.0480288
Institutions treating patients with CGT pharmaceuticals,QIMR Berghofer Medical Research Institute,,virus specific T cells,"300 Herston Road, Herston, Queensland 4006",Brisbane,Prof Rajiv Khanna,Prof Rajiv Khanna,,,-27.4495774,153.0274297,46.3144754,11.0480288
,Intellect Labs Pty Ltd,,,"36 Agnes Street, Fortitude Valley QLD 4006 Australia",Brisbane,,,Intellect Labs Pty Ltd,https://intellectlabs.com.au/,-27.4577045,153.0309402,46.3144754,11.0480288
,RSM Australia,,,"Level 6/340 Adelaide St, Brisbane City QLD 4000",Brisbane,,,RSM Australia,,-27.4627801,153.0319501,46.3144754,11.0480288
,Prime Accounting and Business Advisory Pty Ltd,,,"Level 6/100 Creek Street, Brisbane QLD 4000",Brisbane,,,Prime Accounting and Business Advisory Pty Ltd,,-27.4636472,153.0279861,46.3144754,11.0480288
,Abacus dx Pty Ltd,,,"34 Corporate Drive, Cannon Hill, QLD, 4170",Brisbane,,,Abacus dx Pty Ltd,https://www.abacusdx.com/,-27.4674704,153.0905045,46.3144754,11.0480288
,Resolian Bioanalytics,,,"34 Corporate Dr, Cannon Hill QLD 4170",Brisbane,,,Resolian Bioanalytics,https://www.resolian.com/,-27.4674704,153.0905045,46.3144754,11.0480288
,Davies Collison Cave,,,"Level 10, 301 Coronation Drive, Milton QLD 4064",Brisbane,,,Davies Collison Cave,,-27.4767745,153.0013527,46.3144754,11.0480288
Research facilities,Queensland University of Technology,,,"2 George St, Brisbane, QLD 4000",Brisbane,,,,,-27.4777825,153.0277244,46.3144754,11.0480288
,The Institute for Molecular Biosciences - The University of Queensland,,,"The University of Queensland, Brisbane QLD 4072 Australia",Brisbane,,,The Institute for Molecular Biosciences - The University of Queensland,http://imb.uq.edu.au/,-27.49741805,153.0131696,46.3144754,11.0480288
,Protagonist Pty Ltd,,,"306 Carmody Road, St Lucia, Brisbane Qld 4072 AUSTRALIA",Brisbane,,,Protagonist Pty Ltd,http://www.protagonist-inc.com/,-27.4979508,153.010404,46.3144754,11.0480288
,360biolabs Pty Ltd,,,"37 Kent St, Woolloongabba, QLD, 4102",Brisbane,,,360biolabs Pty Ltd,,-27.498964,153.0316378,46.3144754,11.0480288
,Life Sciences Queensland Ltd (LSQ),,,"37 Kent Street, Woolloongabba, Queensland 4102",Brisbane,,,Life Sciences Queensland Ltd (LSQ),http://www.lsq.com.au/,-27.498964,153.0316378,46.3144754,11.0480288
,Oroborus Pty Ltd,,,"37 Kent Street, Woolloongabba Queensland 4102, Australia",Brisbane,,,Oroborus Pty Ltd,https://oroborus.com.au/,-27.498964,153.0316378,46.3144754,11.0480288
,Translational Research Institute Australia,,,"37 Kent Street, Woolloongabba QLD 4102, AUSTRALIA",Brisbane,,,Translational Research Institute Australia,http://www.tri.edu.au/,-27.498964,153.0316378,46.3144754,11.0480288
,Agilex Biolabs Pty Ltd,,,"2404 Logan Road, Eight Mile Plains QLD 4113",Brisbane,,,Agilex Biolabs Pty Ltd,,-27.5725597,153.0914631,46.3144754,11.0480288
,Cook Medical,,,"95 Brandl Street, Eight Mile Plains, Brisbane, QLD 4113, AUSTRALIA",Brisbane,,,Cook Medical,https://www.cookmedical.com.au/,-27.57759465,153.0989119,46.3144754,11.0480288
non TGA licensed phase 0/1 manufacture facilities,Southern RNA,pDNA and mRNA manufacture,https://southernrna.com.au/,"6 Yoga Wy, Springfield Central QLD 4300",Brisbane,,Steven Krause,,https://southernrna.com.au/,-27.6813589,152.9009639,46.3144754,11.0480288
,Bionics Queensland,,,,Brisbane,,,Bionics Queensland,http://www.bionicsqueensland.com.au/,46.3144754,11.0480288,46.3144754,11.0480288
,Department of Environment and Science (QLD),,,,Brisbane,,,Department of Environment and Science (QLD),http://www.des.qld.gov.au/,46.3144754,11.0480288,46.3144754,11.0480288
,Griffith Institute for Drug Discovery,,,,Brisbane,,,Griffith Institute for Drug Discovery,https://www.griffith.edu.au/institute-drug-discovery,46.3144754,11.0480288,46.3144754,11.0480288
,"Griffith University, Griffith Enterprise",,,,Brisbane,,,"Griffith University, Griffith Enterprise",http://www.griffith.edu.au/,46.3144754,11.0480288,46.3144754,11.0480288
,"Institute for Molecular Bioscience, The University of Queensland",,,,Brisbane,,,"Institute for Molecular Bioscience, The University of Queensland",,46.3144754,11.0480288,46.3144754,11.0480288
TGA licensed GMP facilities (and process development),Royal Brisbane and Women's,,,,Brisbane,,Cheryl Hutchins,,,46.3144754,11.0480288,46.3144754,11.0480288
Process development only facilities,University of Queensland/CCRM Australia,ESTABLISHING,,,Brisbane,,,,,46.3144754,11.0480288,46.3144754,11.0480288
Advanced Medicine tools providers - with physical presence in Australia,Advanced Robotics for Manufacturing Hub (ARM Hub),"Robotics, AI and design-led manufacturing",https://armhub.com.au/,Brisbane,Brisbane,,,,https://armhub.com.au/,-27.4689682,153.0234991,46.3144754,11.0480288
Advanced Medicine tools providers - with physical presence in Australia,Concr,AI/machine learning diagnostics,https://concr.co/,Brisbane,Brisbane,,,,https://concr.co/,-27.4689682,153.0234991,46.3144754,11.0480288
TGA licensed GMP facilities (and process development),Patheon by Thermo Fisher,GMP licenses are for biologics not for cell therapy or gene therapy production yet,,Brisbane,Brisbane,,,,,-27.4689682,153.0234991,46.3144754,11.0480288
Approved commercial treatment centres,Cairns commercial site,,,,Cairns,,,,,46.3144754,11.0480288,46.3144754,11.0480288
,"Australian National University (ANU), Office of Research and Innovation Services",,,,Canberra,,,"Australian National University (ANU), Office of Research and Innovation Services",,46.3144754,11.0480288,46.3144754,11.0480288
Approved commercial treatment centres,Canberra commercial site,,,,Canberra,,,,,46.3144754,11.0480288,46.3144754,11.0480288
Supporting initiatives,Medicines Australia,Member organisation for research-based pharmaceutical industry of Australia,https://www.medicinesaustralia.com.au/,,Canberra,,Anne-Maree Englund,,https://www.medicinesaustralia.com.au/,46.3144754,11.0480288,46.3144754,11.0480288
Process development only facilities,Phenomics Australia,,https://phenomicsaustralia.org.au/,,Canberra,,,,https://phenomicsaustralia.org.au/,46.3144754,11.0480288,46.3144754,11.0480288
,Nexus APAC,,,"10 Bourke St, Barton ACT 2600",Canberra,,,Nexus APAC,https://nexusapac.com.au/,-35.3114188,149.1338071,46.3144754,11.0480288
Government representatives,ACT,,Federal Department of Health and Aged Care,,Canberra,Technology Assessment & Access,David Laffan,,,46.3144754,11.0480288,46.3144754,11.0480288
Government representatives,ACT,,"Department of Industry, Science, Energy and Resources",,Canberra,"Deputy Secretary, Industry and Commercialisation",Julia Pickworth,,,46.3144754,11.0480288,46.3144754,11.0480288
,Catalyst Clinical Research,,,"6 Post Office Square, Clinton, CT 06413",Clinton,,,Catalyst Clinical Research,,41.27875675,-72.52724246,41.27875675,-72.52724246
Approved commercial treatment centres,Darwin commercial site.,,,,Darwin,,,,,46.3144754,11.0480288,46.3144754,11.0480288
Non cell therapy manufacture applications,AusGeneX,research and diagnostics bovine serum products,https://www.ausgenex.com/,,Gold Coast,,,,https://www.ausgenex.com/,46.3144754,11.0480288,46.3144754,11.0480288
Companies developing Advanced Medicines,Cancure,allogeneic T cell immunotherapy,https://cancure.com/,,Gold Coast,,Craig Miles,,https://cancure.com/,46.3144754,11.0480288,46.3144754,11.0480288
Approved commercial treatment centres,Hobart commercial site,,,,Hobart,,,,,46.3144754,11.0480288,46.3144754,11.0480288
,Davies Collison Cave,,,"24 Davey Street, Hobart Tasmania 7000",Hobart,,,Davies Collison Cave,,-42.8948219,147.3151339,-42.8948219,147.3151339
,University of Tasmania,,,,Hobart,,,University of Tasmania,http://www.utas.edu.au/,46.3144754,11.0480288,-42.8948219,147.3151339
Approved commercial treatment centres,Alfred Health,,Kymriah for relapsing/refractory acute lymphoblastic leukaemia in those aged 25 and under,,Melbourne,,,,,46.3144754,11.0480288,46.3144754,11.0480288
Approved commercial treatment centres,Alfred Health,,"Yescarta, for treating relapsing/refractory adult diffuse large B-cell lymphoma",,Melbourne,,,,,46.3144754,11.0480288,46.3144754,11.0480288
Approved commercial treatment centres,Alfred Health,,"Tecartus, for treating relapsed/refractory mantle cell lymphoma",,Melbourne,,,,,46.3144754,11.0480288,46.3144754,11.0480288
Institutions treating patients with CGT pharmaceuticals,Alfred Hospital/Health,,"dendritic cells, MSC, Hemophilia GT, T cells Multiple Schlerosis, non-integrating DNA plasmid OA, allo CAR T, non-integrating DNA plasmid neuropathic pain",,Melbourne,"Eric J Gowans, Daniel Chambers, Prof Huyen Tran, Kiren Kresa-Reahl, MD","Eric J Gowans, Daniel Chambers, Prof Huyen Tran, Kiren Kresa-Reahl, MD",,,46.3144754,11.0480288,46.3144754,11.0480288
Companies developing Advanced Medicines,Algorae Pharmaceuticals (formerly Living Cell Technologies),alginate encapsulated  neonatal porcine choroid plexus for parkinsons transplant,https://algoraepharma.com/,,Melbourne,,,,https://algoraepharma.com/,46.3144754,11.0480288,46.3144754,11.0480288
Clinical CRO,Alithia Life Sciences Pty Ltd,,https://alithialifesciences.com/,,Melbourne,,Tina Soulis,Alithia Life Sciences Pty Ltd,http://www.alithialifesciences.com/,46.3144754,11.0480288,46.3144754,11.0480288
Supporting initiatives,AusBiotech,industry body representing and advocating for organisations doing business in and with the global life sciences economy.,https://www.ausbiotech.org/,,Melbourne,,Marguerite???? Evans?Galea,,https://www.ausbiotech.org/,46.3144754,11.0480288,46.3144754,11.0480288
Institutions treating patients with CGT pharmaceuticals,Austin Hospital,,CAR T,,Melbourne,Jane Olearo,Jane Olearo,,,46.3144754,11.0480288,46.3144754,11.0480288
Institutions treating patients with CGT pharmaceuticals,Avenue Private Hospital,,ligament stem cell,,Melbourne,A/Prof Eugene Ek,A/Prof Eugene Ek,,,46.3144754,11.0480288,46.3144754,11.0480288
Cell and Tissue repositories,BMDI Cord Blood Bank (AusCord),,,,Melbourne,,Ngaire Elwood,,,46.3144754,11.0480288,46.3144754,11.0480288
Companies developing Advanced Medicines,Cartherics,iPSC derived CAR T,www.cartherics.com,,Melbourne,,Nicholas Boyd,,www.cartherics.com,46.3144754,11.0480288,46.3144754,11.0480288
Supporting initiatives,CCRM Australia,"accelerates regenerative medicine commercialisation by connecting stakeholders, providing funding, expertise, and access to cutting-edge process development and manufacturing facilities.",https://ccrmaustralia.com.au/,,Melbourne,,Silvio Tiziani,,https://ccrmaustralia.com.au/,46.3144754,11.0480288,46.3144754,11.0480288
Supporting initiatives,Cell and Gene Therapy Catalyst,accelerate Australias cell and gene industry and ensure everyone in Australia has access to advanced therapeutics,https://www.ausbiotech.org/programs/australias-cell-and-gene-catalyst,,Melbourne,,Marguerite???? Evans?Galea,,https://www.ausbiotech.org/programs/australias-cell-and-gene-catalyst,46.3144754,11.0480288,46.3144754,11.0480288
Advanced Medicine tools providers - with physical presence in Australia,Celleo,"GMP equipment for formulation, fill finish, bioreactor development",https://celleo.com/,,Melbourne,,David Kneen,,https://celleo.com/,46.3144754,11.0480288,46.3144754,11.0480288
Research facilities,Centre for Eye Research Australia,,,,Melbourne,,Keith Martin,,,46.3144754,11.0480288,46.3144754,11.0480288
Clinical CRO,Charles river laboratories (acquired Microgenetix 2018),"microbial detection/identification, endoxtoxin, NGS",https://www.criver.com/microbial-solutions-facility-melbourne-australia,,Melbourne,,Jeremy White,,https://www.criver.com/microbial-solutions-facility-melbourne-australia,46.3144754,11.0480288,46.3144754,11.0480288
Supporting initiatives,CSIRO,"scientific research organisations, dedicated to addressing Australia's most pressing challenges.",https://www.csiro.au/,,Melbourne,,Susie Nilsson,,https://www.csiro.au/,46.3144754,11.0480288,46.3144754,11.0480288
Companies developing Advanced Medicines,Currus Biologics,CAR T,https://www.currusbio.com/,,Melbourne,,Sam Cobb,,https://www.currusbio.com/,46.3144754,11.0480288,46.3144754,11.0480288
Institutions treating patients with CGT pharmaceuticals,Dandenong Hospital,,human amnion epithelial cells,,Melbourne,Dr Rebecca Lim,Dr Rebecca Lim,,,46.3144754,11.0480288,46.3144754,11.0480288
Institutions treating patients with CGT pharmaceuticals,Emeritus Research,,MSC,,Melbourne,"Donna Skerrett, Stephen Hall","Donna Skerrett, Stephen Hall",,,46.3144754,11.0480288,46.3144754,11.0480288
Institutions treating patients with CGT pharmaceuticals,Epworth Richmond Hospital,,ligament stem cell,,Melbourne,A/Prof Eugene Ek,A/Prof Eugene Ek,,,46.3144754,11.0480288,46.3144754,11.0480288
Research facilities,Florey Institute of Neuroscience,,,,Melbourne,,Clare Parish,,,46.3144754,11.0480288,46.3144754,11.0480288
Institutions treating patients with CGT pharmaceuticals,Footscray Hospital,,iPSC-MSC,,Melbourne,"Jolanta Airey, MD","Jolanta Airey, MD",,,46.3144754,11.0480288,46.3144754,11.0480288
Institutions treating patients with CGT pharmaceuticals,GSK Investigational site,,"Adoptive cell therapy, engineered T cells",,Melbourne,Jayesh Desai,Jayesh Desai,,,46.3144754,11.0480288,46.3144754,11.0480288
non TGA licensed phase 0/1 manufacture facilities,Hudson Institute Cell Therapy and Regenerative Medicine Platform (Hudson Institute),,cord blood for preterm cerebral palsy (Monash),,Melbourne,,,,,46.3144754,11.0480288,46.3144754,11.0480288
Research facilities,Hudson Institute of Medical Research,b thalassemia gene therapy,"Alan Trounson, Jim Vadolas",,Melbourne,,Alan Trounson,,,46.3144754,11.0480288,46.3144754,11.0480288
Commercialisation strategy,Increment4 Pty. Ltd.,,https://www.linkedin.com/company/increment4/,,Melbourne,,Gerry McKiernan,,https://www.linkedin.com/company/increment4/,46.3144754,11.0480288,46.3144754,11.0480288
Supporting initiatives,Jumar Bioincubator,connect early-stage and scaling biotech ventures with the support they need to progress discoveries towards real-world treatments and therapies.,https://www.jumarbio.com/,,Melbourne,,Camille Shanahan,,https://www.jumarbio.com/,46.3144754,11.0480288,46.3144754,11.0480288
,"La Trobe University, Innovation & Commercialisation",,,,Melbourne,,,"La Trobe University, Innovation & Commercialisation",http://www.latrobe.edu.au/researchers/innovation-commercialisation,46.3144754,11.0480288,46.3144754,11.0480288
Supporting initiatives,Melbourne Academic Centre for Health,,https://machaustralia.org/,,Melbourne,,Lauren Wallis,,https://machaustralia.org/,46.3144754,11.0480288,46.3144754,11.0480288
Institutions treating patients with CGT pharmaceuticals,Melbourne Children's Trial Centre (MCTC),,,,Melbourne,Andrew Davidson,Andrew Davidson,,,46.3144754,11.0480288,46.3144754,11.0480288
Advanced Medicine tools providers - with physical presence in Australia,Messenger Bio,mRNA synthesis for preclinical discovery,https://www.messenger.bio/,,Melbourne,,Denzil Furtado,,https://www.messenger.bio/,46.3144754,11.0480288,46.3144754,11.0480288
Institutions treating patients with CGT pharmaceuticals,Monash Childrens Hospital,,umbilical cord derived cells,,Melbourne,Dr Atul Malhotra,Dr Atul Malhotra,,,46.3144754,11.0480288,46.3144754,11.0480288
Institutions treating patients with CGT pharmaceuticals,Monash Medical Centre,,"human amnion epithelial cells, MSC",,Melbourne,"Dr Rebecca Lim, Prof Thanh Phan, Roger Brown, K Segal, PhD","Dr Rebecca Lim, Prof Thanh Phan, Roger Brown, K Segal, PhD",,,46.3144754,11.0480288,46.3144754,11.0480288
Supporting initiatives,Monash Partners,,https://monashpartners.org.au/,,Melbourne,,Angela Jones,,https://monashpartners.org.au/,46.3144754,11.0480288,46.3144754,11.0480288
Research facilities,Monash RNA,,https://www.monash.edu/mrna,,Melbourne,,,,https://www.monash.edu/mrna,46.3144754,11.0480288,46.3144754,11.0480288
Supporting initiatives,Monash Training Centre for mRNA,,https://www.monash.edu/mrna-workforce-training-centre/about,,Melbourne,,Jennifer Short,,https://www.monash.edu/mrna-workforce-training-centre/about,46.3144754,11.0480288,46.3144754,11.0480288
Research facilities,Monash University,"clinical quality registers, T-regs for lupus, iPSC derived CAR T, mitochondrial transfer","Rasa Ruseckaite, Josh Ooi, Alan Trounson, John Carroll",,Melbourne,,Alan Trounson,,,46.3144754,11.0480288,46.3144754,11.0480288
Supporting initiatives,MTP Connect/ REDI,Australia's Life Sciences Innovation Accelerator to support the medical products sector,https://www.mtpconnect.org.au/,,Melbourne,,Jarrod Belcher,,https://www.mtpconnect.org.au/,46.3144754,11.0480288,46.3144754,11.0480288
Institutions treating patients with CGT pharmaceuticals,Murdoch Childrens Research Institute,,cord blood MNC for heart,,Melbourne,"Salvatore Pepe and Christian P Brizard, Andrew Davidson","Salvatore Pepe and Christian P Brizard, Andrew Davidson",,,46.3144754,11.0480288,46.3144754,11.0480288
Research facilities,Murdoch Childrens Research Institute (MCRI),,,,Melbourne,,,,,46.3144754,11.0480288,46.3144754,11.0480288
Institutions treating patients with CGT pharmaceuticals,Olivia Newton John Hospital,,virus specific T cells,,Melbourne,,,,,46.3144754,11.0480288,46.3144754,11.0480288
Commercialisation strategy,Paul Fennessy Advisory,,https://www.linkedin.com/in/paul-fennessy-a559061a/?originalSubdomain=au,,Melbourne,,Paul Fennessy,,https://www.linkedin.com/in/paul-fennessy-a559061a/?originalSubdomain=au,46.3144754,11.0480288,46.3144754,11.0480288
Clinical trials of Advanced Medicines,Roche,,https://www.roche-australia.com/,,Melbourne,,Caroline Ryan,,https://www.roche-australia.com/,46.3144754,11.0480288,46.3144754,11.0480288
Approved commercial treatment centres,Royal Childrens Hospital,,Kymriah for relapsing/refractory acute lymphoblastic leukaemia in those aged 25 and under,,Melbourne,,,,,46.3144754,11.0480288,46.3144754,11.0480288
Institutions treating patients with CGT pharmaceuticals,Royal Children's Hospital,,"CAR T, allo CAR T, cord blood MNC for heart, hemophilia GT, GT DMD, GT SMA",,Melbourne,"Rachel Conyers, Theresa Cole, Dr Ian Woodcock","Rachel Conyers, Theresa Cole, Dr Ian Woodcock",,,46.3144754,11.0480288,46.3144754,11.0480288
Institutions treating patients with CGT pharmaceuticals,Royal Melbourne Hospital,,"CAR T, MSC, ISC-hpNSC Parkinsons Disease, GT Fabry Disease, GT Gaucher Disease, GT b-thalassemia, virus specific T cells",,Melbourne,,,,,46.3144754,11.0480288,46.3144754,11.0480288
Approved commercial treatment centres,Royal Victorian Eye and Ear Hospital,,"Luxturna, for treating inherited retinal dystrophies",,Melbourne,,,,,46.3144754,11.0480288,46.3144754,11.0480288
Institutions treating patients with CGT pharmaceuticals,Royal Victorian Eye and Ear Hospital/Centre for Eye Research Australia (CERA),,"GT Leber Congenital Amaurosis, GT AMD",,Melbourne,"Lauren Ayton, Tom Edwards, Dr Doron Hickey","Lauren Ayton, Tom Edwards, Dr Doron Hickey",,,46.3144754,11.0480288,46.3144754,11.0480288
Institutions treating patients with CGT pharmaceuticals,Royal Women's Hospital,,human amnion epithelial cells,,Melbourne,Dr Rebecca Lim,Dr Rebecca Lim,,,46.3144754,11.0480288,46.3144754,11.0480288
Advanced Medicine tools providers - with physical presence in Australia,Scientifix Pty. Ltd.,,www.scientifix.com.au,,Melbourne,,Nikki Tsoudis,,www.scientifix.com.au,46.3144754,11.0480288,46.3144754,11.0480288
Advanced Medicine tools providers - with physical presence in Australia,Scinogy,cGMP compliant devices for cell washing and harvesting,https://www.scinogy.com/,,Melbourne,,,,https://www.scinogy.com/,46.3144754,11.0480288,46.3144754,11.0480288
Commercialisation strategy,SeerPharma,Quality and GMP,https://www.seerpharma.com/,,Melbourne,,,,https://www.seerpharma.com/,46.3144754,11.0480288,46.3144754,11.0480288
Research facilities,St Vincent's Institute,"pluripotent derived MSC (Cynata) MRFF, Univ of Arizona (devices)",,,Melbourne,,Thomas Loudovaris,,,46.3144754,11.0480288,46.3144754,11.0480288
Advanced Medicine tools providers - with physical presence in Australia,STEMCELL Technologies,"media, cell dissociation/isolation, genome editing, supplement, cryopreservation",www.stemcell.com,,Melbourne,,Cyndy Nauer,,,46.3144754,11.0480288,46.3144754,11.0480288
Institutions treating patients with CGT pharmaceuticals,Sunshine Hospital,,iPSC-MSC,,Melbourne,"Jolanta Airey, MD","Jolanta Airey, MD",,,46.3144754,11.0480288,46.3144754,11.0480288
Companies developing Advanced Medicines,Tessara Therapeutics,"TTX-001 off-the shelf dopamine replacement micro tissue therapy, at Jumar incubator",www.tessaratherapeutics.com,,Melbourne,,Christos Papadimitriou,,www.tessaratherapeutics.com,46.3144754,11.0480288,46.3144754,11.0480288
Research facilities,Translational Research Facility of the Monash Health Translation Precinct,,,,Melbourne,,,,,46.3144754,11.0480288,46.3144754,11.0480288
Research facilities,University of Melbourne,,"Christine Wells, Alice Pebay",,Melbourne,,Alice Pebay,,,46.3144754,11.0480288,46.3144754,11.0480288
,Johnson Matthey (Aust) Ltd,,,"64 Lillee Crescent, Tullamarine Melbourne",Melbourne,,,Johnson Matthey (Aust) Ltd,http://www.matthey.com.au/,-37.7096132,144.848763,46.3144754,11.0480288
,Nutromics,,,"420 Victoria St, Brunswick VIC 3056",Melbourne,,,Nutromics,https://www.nutromics.com/,-37.7665943,144.9566828,46.3144754,11.0480288
,Dimerix Limited,,,"425 Smith Street, Fitzroy VIC, 3065 Australia",Melbourne,,,Dimerix Limited,http://dimerix.com/,-37.7956439,144.9844653,46.3144754,11.0480288
,Gertrude Biomedical Pty Ltd,,,"30 Flemington Road, Parkville VIC 3052",Melbourne,,,Gertrude Biomedical Pty Ltd,https://www.gertrudebiomed.com/,-37.7973774,144.9533403,46.3144754,11.0480288
,"Bio21 Molecular Science & Biotechnology Institute, University of Melbourne",,,"30 Flemington Road, Parkville, Melbourne, Victoria",Melbourne,,,"Bio21 Molecular Science & Biotechnology Institute, University of Melbourne",https://www.bio21.unimelb.edu.au/,-37.7978347,144.9537755,46.3144754,11.0480288
,The Walter & Eliza Hall Institute of Medical Research,,,"1G Royal Parade, Parkville, Victoria 3052, Australia",Melbourne,,,The Walter & Eliza Hall Institute of Medical Research,https://www.wehi.edu.au/,-37.7981121,144.9560908,46.3144754,11.0480288
,Neuroscience Trials Australia,,,"30 Royal Parade, Parkville, Victoria 3052",Melbourne,,,Neuroscience Trials Australia,https://neurosciencetrialsaustralia.com/,-37.79832015,144.9585517,46.3144754,11.0480288
,The Florey Institute of Neuroscience and Mental Health,,,"30 Royal Parade, Parkville, Victoria 3052",Melbourne,,,The Florey Institute of Neuroscience and Mental Health,https://florey.edu.au/,-37.79832015,144.9585517,46.3144754,11.0480288
,Cancer Trials Australia,,,"305 Grattan Street, Melbourne, VIC, 3000",Melbourne,,,Cancer Trials Australia,http://www.cancertrialsaustralia.com/,-37.7999274,144.9562153,46.3144754,11.0480288
Institutions treating patients with CGT pharmaceuticals,Peter MacCallum Cancer Centre,,"CAR T, allo CAR T, allo CAR NK","305 Grattan St, Melbourne VIC 3052",Melbourne,"Jane Oliaro, Michael Dickinson, Simon Harrison, Dominic Wall","Jane Oliaro, Michael Dickinson, Simon Harrison, Dominic Wall",,,-37.7999274,144.9562153,46.3144754,11.0480288
Approved commercial treatment centres,Peter MacCallum Cancer Centre,,Kymriah for relapsing/refractory acute lymphoblastic leukaemia in those aged 25 and under,"306 Grattan St, Melbourne VIC 3052",Melbourne,,,,,-37.8002971,144.9628453,46.3144754,11.0480288
Approved commercial treatment centres,Peter MacCallum Cancer Centre,,Kymriah for relapsing/refractory adult diffuse large B-cell lymphoma,"307 Grattan St, Melbourne VIC 3052",Melbourne,,,,,-37.8002971,144.9628453,46.3144754,11.0480288
Approved commercial treatment centres,Peter MacCallum Cancer Centre,,"Yescarta, for treating relapsing/refractory adult diffuse large B-cell lymphoma","308 Grattan St, Melbourne VIC 3052",Melbourne,,,,,-37.8002971,144.9628453,46.3144754,11.0480288
Approved commercial treatment centres,Peter MacCallum Cancer Centre,,"Tecartus, for treating relapsed/refractory mantle cell lymphoma","309 Grattan St, Melbourne VIC 3052",Melbourne,,,,,-37.8002971,144.9628453,46.3144754,11.0480288
,Genetic Techonologies Ltd,,,"60-66 Hanover Street, Fitzroy, Victoria 3065 Australia",Melbourne,,,Genetic Techonologies Ltd,http://www.genetype.com/,-37.8027229,144.9742053,46.3144754,11.0480288
Companies developing Advanced Medicines,CSL Limited,"hemophilia GT, mRNA",www.csl.com.au,"655 Elizabeth Street, Melbourne, VIC 3000 Australia",Melbourne,,Chris Alma,,www.csl.com.au,-37.8041652,144.9584547,46.3144754,11.0480288
TGA licensed GMP facilities (and process development),CSL Ltd,"GMP licenses are for biologics, and perhaps virus production, not for cell therapy or gene therapy production yet",,"655 Elizabeth Street, Melbourne, VIC 3000 Australia",Melbourne,,Christopher Alma,,,-37.8041652,144.9584547,46.3144754,11.0480288
Advanced Medicine tools providers - with physical presence in Australia,Bio-Strategy Ltd,workflow automation,https://www.bio-strategy.com.au/,Melbourne,Melbourne,,Vince Marrazzo,,https://www.bio-strategy.com.au/,-37.8142454,144.9631732,46.3144754,11.0480288
,Resolutum Global Pty Ltd,,,"Melbourne, VIC 3806, AU",Melbourne,,,Resolutum Global Pty Ltd,http://www.rgcro.com/,-37.8142454,144.9631732,46.3144754,11.0480288
,PolyActiva Pty Ltd,,,"77 Crown Street, Richmond VIC 3121 Australia",Melbourne,,,PolyActiva Pty Ltd,https://polyactiva.com/,-37.8167118,145.0089316,46.3144754,11.0480288
,Morgans Financial Limited,,,"367 Collins St, Melbourne VIC 3000",Melbourne,,,Morgans Financial Limited,,-37.8174397,144.9625232,46.3144754,11.0480288
Other RM product developers,Polynovo Ltd,biocompatible polymers - dermal tissue,https://au.polynovo.com/,"2/320 Lorimer Street, Port Melbourne, Victoria 3207 Australia",Melbourne,,,,https://au.polynovo.com/,-37.8296273,144.9008878,46.3144754,11.0480288
,Radium Capital,,,"10-20 Gwynne Street, Cremorne, Melbourne, VIC 3121",Melbourne,,,Radium Capital,,-37.8314873,144.9926696,46.3144754,11.0480288
,Invion Limited,,,"100 Albert Road, South Melbourne VIC 3205",Melbourne,,,Invion Limited,https://inviongroup.com/,-37.8349065,144.9711388,46.3144754,11.0480288
,360biolabs Pty Ltd,,,"85 Commercial Road, Melbourne, VIC, 3004",Melbourne,,,360biolabs Pty Ltd,http://www.360biolabs.com/,-37.845199,144.9810471,46.3144754,11.0480288
,Nirtek Pty Ltd,,,"75 Commercial Road, Melbourne, Victoria, 3004, Australia",Melbourne,,,Nirtek Pty Ltd,http://www.nirtek.com.au/,-37.84576955,144.9833518,46.3144754,11.0480288
TGA licensed GMP facilities (and process development),IDT Australia Ltd,Industrial scale manufacture incl. fill-finish. No CGT as yet but can do mRNA encapsulation and fill finish.,https://en.idtaus.com.au/,"45 Wadhurst Drive, Boronia, Victoria 3155 Australia",Melbourne,,,,https://en.idtaus.com.au/,-37.8685475,145.2550792,46.3144754,11.0480288
,Fenix Innovation Group,,,"130/45 Gilby Rd., Mount Waverley, VIC 3149 Australia",Melbourne,,,Fenix Innovation Group,https://www.fenixinnovationgroup.com/,-37.8993461,145.136382,46.3144754,11.0480288
,INOVIQ Limited,,,"23 Normanby Road, Notting Hill VIC 3168 Australia",Melbourne,,,INOVIQ Limited,http://www.inoviq.com/,-37.9052136,145.1311603,46.3144754,11.0480288
,Technovalia Pty Ltd,,,"5a Hartnett Cl, Mulgrave VIC 3170, Australia",Melbourne,,,Technovalia Pty Ltd,http://www.technovalia.com/,-37.9229116,145.1491658,46.3144754,11.0480288
,OptiScan Imaging Ltd,,,"16 Miles Street, Mulgrave, Melbourne VIC 3170, AUSTRALIA",Melbourne,,,OptiScan Imaging Ltd,https://www.optiscan.com/,-37.9234007,145.1515772,46.3144754,11.0480288
,Universal Biosensors Pty Ltd,,,"1 Corporate Ave, Rowville VIC 3178",Melbourne,,,Universal Biosensors Pty Ltd,http://www.universalbiosensors.com/,-37.92546665,145.2195819,46.3144754,11.0480288
,Pakair Cargo Specialists Pty Ltd,,,"9 Duigan Drive, Moorabbin Airport, VIC 3194 Australia",Melbourne,,,Pakair Cargo Specialists Pty Ltd,https://www.pakair.com.au/,-37.9830058,145.0948855,46.3144754,11.0480288
,Cerecin Australia Pty Ltd,,,"102 Fox Drive, Dandenong 3175, Victoria, Australia",Melbourne,,,Cerecin Australia Pty Ltd,https://cerecin.com/,-38.0557736,145.2248097,46.3144754,11.0480288
,Deakin Research Commercial,,,,Melbourne,,,Deakin Research Commercial,http://www.deakin.edu.au/,46.3144754,11.0480288,46.3144754,11.0480288
,"Department of Jobs, Skills, Industry and Regions (VIC)",,,,Melbourne,,,"Department of Jobs, Skills, Industry and Regions (VIC)",https://djsir.vic.gov.au/what-we-do/industry-and-innovation,46.3144754,11.0480288,46.3144754,11.0480288
Institutions treating patients with CGT pharmaceuticals,CRISPR Tx research site,,allo CAR T,,"Melbourne, Sydney","Alissa Keegan, MD","Alissa Keegan, MD",,,46.3144754,11.0480288,46.3144754,11.0480288
Institutions treating patients with CGT pharmaceuticals,Novartis Investigational sites,,"CAR T, GT SMA",,"Melbourne, Sydney, Brisbane, Perth",Dr Ian Woodcock/Melbourne,Dr Ian Woodcock/Melbourne,,,46.3144754,11.0480288,46.3144754,11.0480288
Institutions treating patients with CGT pharmaceuticals,Calvary Mater Hospital,,"hemophilia GT, CAR T",,Newcastle,"John Rasko, Jane Olearo","John Rasko, Jane Olearo",,,46.3144754,11.0480288,46.3144754,11.0480288
Approved commercial treatment centres,Calvary Mater Hospital,,,,Newcastle,,,,,46.3144754,11.0480288,46.3144754,11.0480288
Institutions treating patients with CGT pharmaceuticals,Genesis Research Services,,non-integrating DNA plasmid neuropathic pain,,Newcastle,"Howard Rutman, MD,MBA","Howard Rutman, MD,MBA",,,46.3144754,11.0480288,46.3144754,11.0480288
Other RM product developers,Avita Medical,point of care skin processing for transplant,https://avitamedical.com/,,Perth,,,,https://avitamedical.com/,46.3144754,11.0480288,46.3144754,11.0480288
TGA licensed GMP facilities (and process development),Cell & Tissue Therapies Western Australia (CTTWA),,,,Perth,,Zlatibor Velickovic,,,46.3144754,11.0480288,46.3144754,11.0480288
Research facilities,Curtin University,,,,Perth,,,,,46.3144754,11.0480288,46.3144754,11.0480288
Research facilities,Edith Cowan University,,,,Perth,,,,,46.3144754,11.0480288,46.3144754,11.0480288
Institutions treating patients with CGT pharmaceuticals,Fiona Stanley Hospital,,"MSC, hemophilia GT, allo CAR T, iPSC-MSC",,Perth,"Dr Stephen Honeybul, MD, John Rasko, Aditi Mehta, Jolanta Airey","Dr Stephen Honeybul, MD, John Rasko, Aditi Mehta, Jolanta Airey",,,46.3144754,11.0480288,46.3144754,11.0480288
Approved commercial treatment centres,Fiona Stanley Hospital,,,,Perth,,,,,46.3144754,11.0480288,46.3144754,11.0480288
Research facilities,Harry Perkins Research institute,,,,Perth,,,,,46.3144754,11.0480288,46.3144754,11.0480288
Supporting initiatives,ISCT ANZ,translate cell & gene therapies into safe and effective treatments to improve patients' lives.,https://www.isctglobal.org/home,,Perth,,Zlatibor Velickovic,,https://www.isctglobal.org/home,46.3144754,11.0480288,46.3144754,11.0480288
Institutions treating patients with CGT pharmaceuticals,Lions Eye Institute,,eye GT,,Perth,Prof. P. Elizabeth Rakoczy,Prof. P. Elizabeth Rakoczy,,,46.3144754,11.0480288,46.3144754,11.0480288
Research facilities,Lions Eye Institute,,,,Perth,,,,,46.3144754,11.0480288,46.3144754,11.0480288
Research facilities,Murdoch University,,,,Perth,,,,,46.3144754,11.0480288,46.3144754,11.0480288
TGA licensed GMP facilities (and process development),OrthoCell Ltd,,,,Perth,,,,,46.3144754,11.0480288,46.3144754,11.0480288
Other RM product developers,Osteopore,bioresorbable implant,https://www.osteopore.com/,,Perth,,,,https://www.osteopore.com/,46.3144754,11.0480288,46.3144754,11.0480288
Companies developing Advanced Medicines,PYC Therapeutics,mRNA,https://pyctx.com/,,Perth,,,,https://pyctx.com/,46.3144754,11.0480288,46.3144754,11.0480288
Institutions treating patients with CGT pharmaceuticals,Royal Perth Hospital,,"CAR T, MSC, GT Fabry Disease, GT b-thalassemia, iPSC-MSC",,Perth,"Dr Kenneth Micklethwaite, Dr Stephen Honeybul, MD, R.P.Herrmann, Duncan Purtill, Inderpal Panesar, Jolanta Airey","Dr Kenneth Micklethwaite, Dr Stephen Honeybul, MD, R.P.Herrmann, Duncan Purtill, Inderpal Panesar, Jolanta Airey",,,46.3144754,11.0480288,46.3144754,11.0480288
Institutions treating patients with CGT pharmaceuticals,Sir Charles Gairdner Hospital,,"MSC, allo CAR T, iPSC-MSC",,Perth,"Dr Stephen Honeybul, MD, Annie Weaver, PhD, Jolanta Airey","Dr Stephen Honeybul, MD, Annie Weaver, PhD, Jolanta Airey",,,46.3144754,11.0480288,46.3144754,11.0480288
Institutions treating patients with CGT pharmaceuticals,St John of God Hospital,,ligament stem cell,,Perth,A/Prof Eugene Ek,A/Prof Eugene Ek,,,46.3144754,11.0480288,46.3144754,11.0480288
Research facilities,University of Western Australia,,,,Perth,,,,,46.3144754,11.0480288,46.3144754,11.0480288
,Acuity Capital,,,"Level 25, 108 St Georges Terrace, Perth WA 6000, Australia",Perth,,,Acuity Capital,,-31.9545771,115.8571795,46.3144754,11.0480288
,Resonance Health Pty Ltd,,,"141 Burswood Rd, Burswood WA 6100",Perth,,,Resonance Health Pty Ltd,http://www.resonancehealth.com/,-31.9636747,115.8988376,46.3144754,11.0480288
,"Department of Jobs, Tourism, Science and Innovation (WA)",,,,Perth,,,"Department of Jobs, Tourism, Science and Innovation (WA)",https://www.wa.gov.au/organisation/department-of-jobs-tourism-science-and-innovation,46.3144754,11.0480288,46.3144754,11.0480288
,Catalyst Clinical Research,,,"Schiphol Boulevard 359, 1118 BJ Schiphol, The Netherlands",Schiphol,,,Catalyst Clinical Research,,52.3075237,4.7567933,52.3075237,4.7567933
Supporting initiatives,ARCS Australia Ltd.,professional organisation focused on career long professional development for its members in the therapeutic goods sector.,https://www.arcs.com.au/,,Sydney,,Tim Boyle,,https://www.arcs.com.au/,46.3144754,11.0480288,46.3144754,11.0480288
Commercialisation strategy,Asia Pacific Consultants Pty. Ltd.,,https://www.a-p-c.com.au/services/gmp-and-quality-systems/,,Sydney,,,,https://www.a-p-c.com.au/services/gmp-and-quality-systems/,46.3144754,11.0480288,46.3144754,11.0480288
Clinical trials of Advanced Medicines,Bayer,,,,Sydney,,Loredana Esposito,,,46.3144754,11.0480288,46.3144754,11.0480288
Supporting initiatives,Bioplatforms Australia,"omics technologies in support of all life science researchers working across human health, agriculture, biodiversity and industry.",https://bioplatforms.com/,,Sydney,,,,https://bioplatforms.com/,46.3144754,11.0480288,46.3144754,11.0480288
non TGA licensed phase 0/1 manufacture facilities,"Cell & Molecular Therapies, Royal Prince Alfred Hospital",dose preparation for clinical trials and market approved use,https://slhd.health.nsw.gov.au/rpa-hospital-research/cell-molecular-therapies,,Sydney,,Sharon Sagnella,,https://slhd.health.nsw.gov.au/rpa-hospital-research/cell-molecular-therapies,46.3144754,11.0480288,46.3144754,11.0480288
Institutions treating patients with CGT pharmaceuticals,Chris O'Brian Lifehouse,,,,Sydney,Jeremy Crook,"Eva Tomaskovic-Crook, Jeremy Crook",,,46.3144754,11.0480288,46.3144754,11.0480288
,Chubb Insurance Australia Limited *Special member discount,,,,Sydney,,,Chubb Insurance Australia Limited *Special member discount,,46.3144754,11.0480288,46.3144754,11.0480288
Advanced Medicine tools providers - with physical presence in Australia,CULTURON,TC coating for assay development and standardising cell culture,https://www.culturon.com.au/,,Sydney,,Stuart Fraser,,https://www.culturon.com.au/,46.3144754,11.0480288,46.3144754,11.0480288
Advanced Medicine tools providers - with physical presence in Australia,Cytiva,,www.cytivalifesciences.com,,Sydney,,Janet Macpherson,,www.cytivalifesciences.com,46.3144754,11.0480288,46.3144754,11.0480288
Commercialisation strategy,Decode Science Pty Ltd,business development support,https://decodescience.com.au/,,Sydney,,Daina Elliott,,https://decodescience.com.au/,46.3144754,11.0480288,46.3144754,11.0480288
Commerical providers of Advanced Medicines,Gilead Science,Ex-vivo gene/cell therapy Yescarta and Tecartus.,,,Sydney,,Jane Langford,,,46.3144754,11.0480288,46.3144754,11.0480288
Companies developing Advanced Medicines,ImmVirX,Oncolytic virus,https://www.immvirx.com/,,Sydney,,,,https://www.immvirx.com/,46.3144754,11.0480288,46.3144754,11.0480288
Advanced Medicine tools providers - with physical presence in Australia,Inventia Life Science,,www.inventia.life,,Sydney,,Jeremy Dobrowolski,,www.inventia.life,46.3144754,11.0480288,46.3144754,11.0480288
Other RM product developers,Inventia lifescience,3D printed tissue,https://inventia.life/,,Sydney,,,,https://inventia.life/,46.3144754,11.0480288,46.3144754,11.0480288
Clinical CRO,IQVIA Biotech,,,,Sydney,,Michelle Ng,,,46.3144754,11.0480288,46.3144754,11.0480288
Institutions treating patients with CGT pharmaceuticals,Liverpool Hospital,,T cells Multiple Schlerosis,,Sydney,"Kiren Kresa-Reahl, MD","Kiren Kresa-Reahl, MD",,,46.3144754,11.0480288,46.3144754,11.0480288
Research facilities,Macquarie Uni,gene therapy ALS/MND/LGD/AD/dementia/dravet syndrome,,,Sydney,,,,,46.3144754,11.0480288,46.3144754,11.0480288
,"Melbourne School of Engineering, The University of Melbourne",,,,Sydney,,,"Melbourne School of Engineering, The University of Melbourne",https://eng.unimelb.edu.au/,46.3144754,11.0480288,46.3144754,11.0480288
Advanced Medicine tools providers - with physical presence in Australia,Miltenyi Biotec,"bioreactor, media and cell sorting",www.miltenyi.com,,Sydney,,Matt Banfield,,www.miltenyi.com,46.3144754,11.0480288,46.3144754,11.0480288
Institutions treating patients with CGT pharmaceuticals,Nepean Hospital,,iPSC-MSC,,Sydney,"Jolanta Airey, MD","Jolanta Airey, MD",,,46.3144754,11.0480288,46.3144754,11.0480288
Cell and Tissue repositories,NSW statewide biobank,,,,Sydney,,Jenny Byrne,,,46.3144754,11.0480288,46.3144754,11.0480288
Clinical trials of Advanced Medicines,Pfizer,,,,Sydney,,Louise Graham,,,46.3144754,11.0480288,46.3144754,11.0480288
Companies developing Advanced Medicines,Regeneus,autologous MSC,www.regeneus.com.au,,Sydney,,,,www.regeneus.com.au,46.3144754,11.0480288,46.3144754,11.0480288
Institutions treating patients with CGT pharmaceuticals,Royal North Shore Hospital,,MSC,,Sydney,Prof Lyn March,Prof Lyn March,,,46.3144754,11.0480288,46.3144754,11.0480288
Institutions treating patients with CGT pharmaceuticals,Royal Prince Alfred Hospital,,"dendritic cells, hemophilia GT, b-Thalassemia GT, iPSC-MSC, allo CAR T, CAR T, GT dementia, allo CAR NK, rAAV, CRISPR/Cas9, GT hereditary angioedema, GT dislipidemias",,Sydney,"John Rasko, Kiren Kresa-Reahl, Olga Uspenskaya-Cadoz, David Shook","John Rasko, Kiren Kresa-Reahl, Olga Uspenskaya-Cadoz, David Shook",,,46.3144754,11.0480288,46.3144754,11.0480288
Approved commercial treatment centres,Royal Prince Alfred Hospital,,CAR T for diffuse large B-cell lymphoma,,Sydney,,,,,46.3144754,11.0480288,46.3144754,11.0480288
Approved commercial treatment centres,Royal Prince Alfred Hospital,,CAR T for acute lymphoblastic leukaemia (? 18 years ? 25 years old),,Sydney,,,,,46.3144754,11.0480288,46.3144754,11.0480288
Institutions treating patients with CGT pharmaceuticals,Sanofi-Aventis Administrative office,,non-integrating DNA plasmid,,Sydney,,Helen Dodds,,,46.3144754,11.0480288,46.3144754,11.0480288
Research facilities,Save Sight Institute,,,,Sydney,,,,,46.3144754,11.0480288,46.3144754,11.0480288
Companies developing Advanced Medicines,Skin2Neuron,nair follicle derived neurons for dementia,https://www.skin2neuron.org/,,Sydney,,Michael Valenzuela,,https://www.skin2neuron.org/,46.3144754,11.0480288,46.3144754,11.0480288
non TGA licensed phase 0/1 manufacture facilities,St Vincent's Sydney?,cell therapy facility announced 14th Feb 2024,,,Sydney,,,,,46.3144754,11.0480288,46.3144754,11.0480288
Institutions treating patients with CGT pharmaceuticals,St. Vincent's Hospital,,"Prostate cancer GT, MSC, CAR T, allo CAR NK, virus specific T cells",,Sydney,"David N Dalley, Daniel Chambers, Jane Oliaro, David Shook","David N Dalley, Daniel Chambers, Jane Oliaro, David Shook",,,46.3144754,11.0480288,46.3144754,11.0480288
Approved commercial treatment centres,"Sydney Children's Hospital, Randwick",,Kymriah for acute lymphoblastic leukaemia (< 18 years old),,Sydney,,,,,46.3144754,11.0480288,46.3144754,11.0480288
Institutions treating patients with CGT pharmaceuticals,Sydney Children's Hospital/Network,,"CAR T, GT SMA",,Sydney,A/Prof David Ziegler,A/Prof David Ziegler,,,46.3144754,11.0480288,46.3144754,11.0480288
Cell and Tissue repositories,Sydney Cord Blood Bank (AusCord),,,,Sydney,,Jessica Sue,,,46.3144754,11.0480288,46.3144754,11.0480288
Institutions treating patients with CGT pharmaceuticals,Sydney Eye Hospital and Save Sight Institute,,GT Leber Congenital Amaurosis,,Sydney,John Grigg,John Grigg,,,46.3144754,11.0480288,46.3144754,11.0480288
Advanced Medicine tools providers - with physical presence in Australia,Terumo BCT,,www.terumobct.com,,Sydney,,Babak Jafari,,www.terumobct.com,46.3144754,11.0480288,46.3144754,11.0480288
Supporting initiatives,Therapeutic Innovations Australia (TIA),invests in research infrastructure to enable seamless access to expertise and services vital to translate research discoveries into human health impacts.,https://therapeuticinnovation.com.au/,,Sydney,,Heather Donaghy,,https://therapeuticinnovation.com.au/,46.3144754,11.0480288,46.3144754,11.0480288
Advanced Medicine tools providers - with physical presence in Australia,Thermofisher,,www.thermofisher.com.au,,Sydney,,Sylvie Shen,,www.thermofisher.com.au,46.3144754,11.0480288,46.3144754,11.0480288
Institutions treating patients with CGT pharmaceuticals,University of Sydney,,Tumour Antigen Cellular Therapy,,Sydney,Dr Emily Blyth,Dr Emily Blyth,,,46.3144754,11.0480288,46.3144754,11.0480288
Research facilities,University of Sydney,,,,Sydney,,,,,46.3144754,11.0480288,46.3144754,11.0480288
Research facilities,UNSW,"bioreactor, corneal cell therapy","Rob Nordon, Nick Di Girolamo",,Sydney,,,,,46.3144754,11.0480288,46.3144754,11.0480288
Companies developing Advanced Medicines,Chimeric Therapeutics Ltd,CAR-T and CAR-NK,https://chimerictherapeutics.com/,Sydney/US,Sydney,,Jennifer Chow,,https://chimerictherapeutics.com/,27.9633563,-82.2073118,46.3144754,11.0480288
,Formrite Group Pty Ltd,,,"18/13 Gibbens Rd, ?West Gosford NSW 2250, Australia",Sydney,,,Formrite Group Pty Ltd,https://www.formrite.com.au/,-33.4156225,151.3250102,46.3144754,11.0480288
,Adapt ldeations Pty Ltd,,,"34/7 Salisbury Road, Castle Hill, NSW, 2154",Sydney,,,Adapt ldeations Pty Ltd,,-33.7290613,150.9766128,46.3144754,11.0480288
,Southern Star Research,,,"1 Merriwa Street, Gordon NSW 2072 Australia",Sydney,,,Southern Star Research,http://www.southernstarresearch.com/,-33.752652,151.147954,46.3144754,11.0480288
,Cellabs Pty Ltd,,,"7/27 Dale Street, Brookvale 2100, Sydney, NSW, AUSTRALIA",Sydney,,,Cellabs Pty Ltd,http://www.cellabs.com.au/,-33.763182,151.2687893,46.3144754,11.0480288
,Medtronic Australasia Pty Ltd,,,"2 Alma Road, Macquarie Park, NSW 2113 Australia",Sydney,,,Medtronic Australasia Pty Ltd,http://www.medtronic.com.au/,-33.7750249,151.1232014,46.3144754,11.0480288
,Smartways Logistics for Lifescience,,,"7/5 Talavera Road, Macquarie Park NSW 2113 Australia",Sydney,,,Smartways Logistics for Lifescience,https://smartwayslfl.com/,-33.7756786,151.1218124,46.3144754,11.0480288
,Cochlear Limited,,,"1 University Avenue, Macquarie University, NSW, 2109, Australia",Sydney,,,Cochlear Limited,https://www.cochlear.com/au/en/home,-33.777595,151.1133845,46.3144754,11.0480288
Commerical providers of Advanced Medicines,Novartis Pharmaceuticals Australia Pty Ltd,In-vivo gene therapies  Zolgensma and Luxtura. Imlygic cancelled 2021. Ex-vivo gene/cell therapy Kymriah.,,"54 Waterloo Rd, Macquarie Park NSW 2113",Sydney,,Monique Jonson,,,-33.783044,151.124779,46.3144754,11.0480288
,Sonic Clinical Trials Pty Ltd,,,"14 Giffnock Avenue, Macquarie Park NSW 2113, Australia",Sydney,,,Sonic Clinical Trials Pty Ltd,http://www.sonicclinicaltrials.com/,-33.784974,151.123766,46.3144754,11.0480288
,Teva Pharmaceuticals Australia Pty Ltd,,,"37 Epping Road, Macquarie Park, NSW 2113",Sydney,,,Teva Pharmaceuticals Australia Pty Ltd,http://www.tevapharm.com/,-33.79167255,151.1322785,46.3144754,11.0480288
Clinical CRO,Eurofins,,,179 Magowar Road GIRRAWEEN   NSW  2145,Sydney,,Fergus O'Connell,,,-33.8007581,150.9418955,46.3144754,11.0480288
Research facilities,Childrens Medical Research Institute (CMRI),,,"214 Hawkesbury Road, Westmead NSW 2145, Australia",Sydney,,Anai Gonzalez Cordero,,,-33.8079363,150.9871593,46.3144754,11.0480288
,Lucid Health Consulting Pty Ltd,,,"32 Mitchell St, McMahons Pt NSW 2060",Sydney,,,Lucid Health Consulting Pty Ltd,http://www.lucidhealthcon.com/,-33.8437214,151.2033969,46.3144754,11.0480288
,Race Oncology Limited,,,"1 Macquarie Pl, Sydney NSW 2000, Australia",Sydney,,,Race Oncology Limited,https://raceoncology.com/,-33.86222995,151.2099186,46.3144754,11.0480288
Cell and Tissue repositories,Cryosite Ltd,,www.cryosite.com,"13a Ferndell Street, South Granville NSW 2142",Sydney,,,,www.cryosite.com,-33.8638791,151.0091822,46.3144754,11.0480288
,Nexus APAC,,,"20 Bond St, Sydney NSW 2000",Sydney,,,Nexus APAC,,-33.864385,151.2085264,46.3144754,11.0480288
Companies developing Advanced Medicines,Australian Foundation for Diabetes Research,medical device containing Kadimastem produced hESC derived  islets,,Sydney,Sydney,,Bernie Tuch,,,-33.8698439,151.2082848,46.3144754,11.0480288
,Research Australia Limited,,,"384 Victoria Street, Darlinghurst NSW 2010",Sydney,,,Research Australia Limited,http://researchaustralia.org/,-33.8790883,151.2212157,46.3144754,11.0480288
,Heart Research Institute,,,"7 Eliza Street, Newtown NSW 2042",Sydney,,,Heart Research Institute,https://www.hri.org.au/,-33.89634,151.1788062,46.3144754,11.0480288
,Ingham Institute for Applied Medical Research,,,"1 Campbell Street, Liverpool NSW 2170",Sydney,,,Ingham Institute for Applied Medical Research,http://www.inghaminstitute.org.au/,-33.9182993,150.9278886,46.3144754,11.0480288
,"University of Technology Sydney , Faculty of Science",,,,Sydney,,,"University of Technology Sydney , Faculty of Science",https://www.uts.edu.au/about/faculty-science,46.3144754,11.0480288,46.3144754,11.0480288
TGA licensed GMP facilities (and process development),Aegros,blood derived medicinal products,https://aegros.com.au/,Sydney,Sydney,,Stephen Mahler,,https://aegros.com.au/,-33.8698439,151.2082848,46.3144754,11.0480288
Institutions treating patients with CGT pharmaceuticals,Children's Hospital at Westmead,,"gene modified PBMC, CAR T, allo CAR T",Sydney,Sydney,"Prof Ian Alexander, Dr Kenneth Micklethwaite, Aditi Mehta, DO","Prof Ian Alexander, Dr Kenneth Micklethwaite, Aditi Mehta, DO",,,-33.8698439,151.2082848,46.3144754,11.0480288
Approved commercial treatment centres,The Childrens Hospital at Westmead,,Kymriah for acute lymphoblastic leukaemia (< 18 years old),Sydney,Sydney,,,,,-33.8698439,151.2082848,46.3144754,11.0480288
Approved commercial treatment centres,Townsville commercial site,,,,Townsville,,,,,46.3144754,11.0480288,,
Research facilities,University of Wollongong,,,,Wollongong,,Jeremy Crook,,,46.3144754,11.0480288,,
INTERNATIONAL BUT KNOWN TO SPONSOR,ABER Instruments,viable cell density in bioreactor,https://aberinstruments.com/biotech/,,,,David Anderson,,https://aberinstruments.com/biotech/,46.3144754,11.0480288,,
INTERNATIONAL BUT KNOWN TO SPONSOR,ACRO Biosystems,"recombinant proteins, media, cytokines, PK, QC, Toxicity, pharmacodynamic, potency assays",https://www.acrobiosystems.com/,,,,Spencer Chiang,,https://www.acrobiosystems.com/,46.3144754,11.0480288,,
,Adjutor Healthcare Pty Ltd,,,,,,,Adjutor Healthcare Pty Ltd,https://www.adjutor.com.au/,46.3144754,11.0480288,,
Other RM product developers,Admedus Ltd,,shut down?,,,,,,,46.3144754,11.0480288,,
Supporting initiatives,Advanced Manufacturing Growth Centre,,https://www.amgc.org.au/,,,,,,https://www.amgc.org.au/,46.3144754,11.0480288,,
non TGA licensed phase 0/1 manufacture facilities,Alfred Hospital,"Skin Bioengineering Lab, upgrading and building cell therapy facility, to be completed 2024",,,,,Shiva Akbarzadeh,,,46.3144754,11.0480288,,
Clinical CRO,Analytical CRO,,,,,,,,,46.3144754,11.0480288,,
Other RM product developers,Anatomics Pty Ltd,,https://www.anatomics.com/,,,,,,https://www.anatomics.com/,46.3144754,11.0480288,,
Supporting initiatives,ASSCR,To support stem cell research and encourage scientific exchange within our region,https://asscr.org/,,,,Anai Gonzalez Cordero,,https://asscr.org/,46.3144754,11.0480288,,
Clinical trials of Advanced Medicines,Atara Biotherapeutics,,https://www.atarabio.com/,,,,,,https://www.atarabio.com/,46.3144754,11.0480288,,
,Aucentra Therapeutics,,,,,,,Aucentra Therapeutics,https://www.aucentra.com/about/,46.3144754,11.0480288,,
Supporting initiatives,Australasian Gene and Cell Therapy Society,facilitate the growth and development of the field of gene and cell therapy in Australasia,https://agcts.org.au/,,,,Leszek Lisowski,,https://agcts.org.au/,46.3144754,11.0480288,,
Supporting initiatives,Australasian Society for Biomaterials and Tissue Engineering,"national focus for professionals who have interests in research, education, development and regulation of biomaterials, tissue engineering and medical devices.",https://www.asbte.org/,,,,Mark Allenby,,https://www.asbte.org/,46.3144754,11.0480288,,
Supporting initiatives,Australia and New Zealand Transplant and Cellular Therapies Ltd (ANZTCT),"society consisting of clinicians, advanced trainees, scientists, medical graduates, nurses and pharmacists, involved in the clinical or laboratory management of patients undergoing blood or marrow stem cell transplantation or with an interest in the field of blood or marrow stem cell transplantation and cellular therapies research.",https://anztct.org.au/,,,,,,https://anztct.org.au/,46.3144754,11.0480288,,
Supporting initiatives,Australian Organoid facility,,,,,,,,,46.3144754,11.0480288,,
,Australian Trade & Investment Commission (Austrade),,,,,,,Australian Trade & Investment Commission (Austrade),http://www.austrade.gov.au/,46.3144754,11.0480288,,
,Avatar Brokers Pty. Limited *special member discount,,,,,,,Avatar Brokers Pty. Limited *special member discount,,46.3144754,11.0480288,,
Institutions treating patients with CGT pharmaceuticals,Barwon Health,,GT Osteoarthritis,,,"Alison Heald, MD","Alison Heald, MD",,,46.3144754,11.0480288,,
,Base Bio Consulting Pty Ltd,,,,,,,Base Bio Consulting Pty Ltd,https://www.basebio.com.au/,46.3144754,11.0480288,,
Commercialisation strategy,Beyond Drug Development,,https://www.beyonddrugdev.com/,,,,,,https://www.beyonddrugdev.com/,46.3144754,11.0480288,,
Clinical trials of Advanced Medicines,Biogen Inc,,,,,,,,,46.3144754,11.0480288,,
Clinical trials of Advanced Medicines,BioMarin Pharmaceutical Inc.,,,,,,,,,46.3144754,11.0480288,,
,BiomeBank,,,,,,,BiomeBank,https://www.biomebank.com/,46.3144754,11.0480288,,
Companies developing Advanced Medicines,BioNTech,,,,,,,,,46.3144754,11.0480288,,
Supporting initiatives,BioProcessing Network,"association of scientists, engineers, students and others interested in fostering and advancing the knowledge and understanding of the technical aspects of the biotechnology industry.",https://www.bioprocessingnetwork.org.au/,,,,,,https://www.bioprocessingnetwork.org.au/,46.3144754,11.0480288,,
,BioTech Primer Inc.,,,,,,,BioTech Primer Inc.,http://biotechprimer.com/,46.3144754,11.0480288,,
,Bridge Investment Research,,,,,,,Bridge Investment Research,https://chriskallos.com.au/,46.3144754,11.0480288,,
,Cambium Bio Limited,,,,,,,Cambium Bio Limited,https://www.cambium.bio/,46.3144754,11.0480288,,
Clinical trials of Advanced Medicines,Celgene Corp,,,,,,,,,46.3144754,11.0480288,,
Cell and Tissue repositories,Cellcare,,www.cellcare.com.au,,,,,,www.cellcare.com.au,46.3144754,11.0480288,,
INTERNATIONAL BUT KNOWN TO SPONSOR,CellVec,CDMO viral vector manufacture,https://cellvec.com/,,,,,,https://cellvec.com/,46.3144754,11.0480288,,
Companies developing Advanced Medicines,Celosia Therapeutics Pty Ltd,gene therapy ALS/MND/LGD/AD/dementia/dravet syndrome,https://celosiatx.com/,,,,Brenton Hamdorf,,https://celosiatx.com/,46.3144754,11.0480288,,
Process development only facilities,Centre for Advanced Therapies (CAT) at Royal Perth Hospital,launch November 2023,,,,,,,,46.3144754,11.0480288,,
Process development only facilities,"Centre of Excellence in Cellular Immunotherapies, Peter Mac","Australian IP Accelerator, Commonwealth-funded",,,,,,,,46.3144754,11.0480288,,
,Certa Therapeutics,,,,,,,Certa Therapeutics,http://www.certatherapeutics.com/,46.3144754,11.0480288,,
Commercialisation strategy,Clinical consulting,,,,,,,,,46.3144754,11.0480288,,
non TGA autologous MSC transplant,Clinical Stem Cells,,www.clinicalstemcells.com,,,,,,www.clinicalstemcells.com,46.3144754,11.0480288,,
Process development only facilities,CSIRO - Recombinant Protein Production and Purification Facility,"This is, or should be cGMP compliant/TGA licensed",https://www.csiro.au/en/work-with-us/use-our-labs-facilities/recombinant-protein-facility,,,,John Power,,https://www.csiro.au/en/work-with-us/use-our-labs-facilities/recombinant-protein-facility,46.3144754,11.0480288,,
Clinical trials of Advanced Medicines,Cynata Therapeutics Ltd,,,,,,,,,46.3144754,11.0480288,,
,Datapharm Australia Pty Ltd,,,,,,,Datapharm Australia Pty Ltd,http://datapharmaustralia.com/,46.3144754,11.0480288,,
,De Motu Cordis Pty Ltd,,,,,,,De Motu Cordis Pty Ltd,http://www.demotucordis.co/,46.3144754,11.0480288,,
,Deloitte,,,,,,,Deloitte,https://www2.deloitte.com/au/en/pages/about-deloitte/articles/about-deloitte-australia.html,46.3144754,11.0480288,,
,DLA Piper Australia,,,,,,,DLA Piper Australia,https://www.dlapiper.com/,46.3144754,11.0480288,,
,Doherty Clinical Trials Ltd,,,,,,,Doherty Clinical Trials Ltd,https://www.dohertyclinicaltrials.com/,46.3144754,11.0480288,,
,ENA Respiratory,,,,,,,ENA Respiratory,https://enarespiratory.com/,46.3144754,11.0480288,,
,EpiAxis TherapeuticsEpichem Pty Ltd,,,,,,,EpiAxis TherapeuticsEpichem Pty Ltd,https://www.epiaxistherapeutics.com/,46.3144754,11.0480288,,
Advanced Medicine tools providers - with physical presence in Australia,Eppendorf,"environmental monitoring, pumps, connectors, tubing, freezers, chemicals, consumables",www.eppendorf.com,,,,,,www.eppendorf.com,46.3144754,11.0480288,,
,ERA Consulting,,,,,,,ERA Consulting,https://www.biopharma-excellence.com/,46.3144754,11.0480288,,
,Evrima Technologies Pty Ltd,,,,,,,Evrima Technologies Pty Ltd,https://www.evrima.com/,46.3144754,11.0480288,,
,"Facet Life Sciences, inc.",,,,,,,"Facet Life Sciences, inc.",http://facetlifesciences.com/,46.3144754,11.0480288,,
,FivepHusion,,,,,,,FivepHusion,https://fivephusion.com/,46.3144754,11.0480288,,
Supporting initiatives,Foundation for the Accreditation of Cellular Therapies (FACT),Setting the global standard for high quality patient care in cellular therapies,https://factglobal.org/,,,,Ngaire Elwood,,https://factglobal.org/,46.3144754,11.0480288,,
Advanced Medicine tools providers - with physical presence in Australia,GenScript,,https://www.genscript.com/,,,,,,https://www.genscript.com/,46.3144754,11.0480288,,
Clinical trials of Advanced Medicines,GlaxoSmithKline,,,,,,,,,46.3144754,11.0480288,,
,GPN Vaccines,,,,,,,GPN Vaccines,https://gpnvaccines.com/,46.3144754,11.0480288,,
Clinical CRO,GreenLight Clinical Pty Ltd,,,,,,,,,46.3144754,11.0480288,,
,Gretals Australia Pty Ltd,,,,,,,Gretals Australia Pty Ltd,https://www.gretals.com/,46.3144754,11.0480288,,
,Health and Medical Industries,,,,,,,Health and Medical Industries,https://dti.sa.gov.au/,46.3144754,11.0480288,,
,Hunton executive Recruitment and Consulting Pty Ltd,,,,,,,Hunton Executive Recruitment and Consulting Pty Ltd,https://www.huntonexecutive.com/,46.3144754,11.0480288,,
,ImpactXHealth,,,,,,,ImpactXHealth,https://www.impactxhealth.com/,46.3144754,11.0480288,,
Advanced Medicine tools providers - with physical presence in Australia,In Vitro Technologies,,www.invitro.com.au,,,,Daina Elliott,,www.invitro.com.au,46.3144754,11.0480288,,
,Institute for Glycomics,,,,,,,Institute for Glycomics,https://www.griffith.edu.au/institute-glycomics,46.3144754,11.0480288,,
Advanced Medicine tools providers - with physical presence in Australia,Invetech,,https://www.invetechgroup.com/,,,,,,https://www.invetechgroup.com/,46.3144754,11.0480288,,
Funding sources,IP Group Pty Ltd,,https://www.ipgroupanz.com/,,,,,,https://www.ipgroupanz.com/,46.3144754,11.0480288,,
Commerical providers of Advanced Medicines,Janssen-Cilag,Ex-vivo gene/cell therapy Carvykti.,,,,,,,,46.3144754,11.0480288,,
,Kantara Consulting,,,,,,,Kantara Consulting,https://kantaraconsulting.com.au/,46.3144754,11.0480288,,
,Labcorp,,,,,,,Labcorp,https://www.labcorp.com/,46.3144754,11.0480288,,
Advanced Medicine tools providers - with physical presence in Australia,LONZA,,www.lonzaboiscience.com.au,,,,Chong-Meng Chai,,www.lonzaboiscience.com.au,46.3144754,11.0480288,,
,Lusid Pty Ltd,,,,,,,Lusid Pty Ltd,,46.3144754,11.0480288,,
,Macarthur Human Capital,,,,,,,Macarthur Human Capital,https://www.macarthurhc.com.au/,46.3144754,11.0480288,,
,Macquarie University - Faculty of Medicine & Health Sciences,,,,,,,Macquarie University - Faculty of Medicine & Health Sciences,http://www.mq.edu.au/about/about-the-university/faculties-and-departments/faculty-of-medicine-and-health-sciences,46.3144754,11.0480288,,
,Madderns Patent & Trade Mark Attorneys,,,,,,,Madderns Patent & Trade Mark Attorneys,http://www.madderns.com.au/,46.3144754,11.0480288,,
non TGA autologous MSC transplant,Magellan,physician exemption for minimal manipulation,www.magellanstemcells.com.au,,,,,,www.magellanstemcells.com.au,46.3144754,11.0480288,,
,McCullough Robertson Lawyers,,,,,,,McCullough Robertson Lawyers,https://www.mccullough.com.au/,46.3144754,11.0480288,,
,Medtechnique Consulting,,,,,,,Medtechnique Consulting,http://www.medtechnique.com.au/,46.3144754,11.0480288,,
,Meizon Innovation,,,,,,,Meizon Innovation,https://www.linkedin.com/company/meizon-innovation-pty-ltd/,46.3144754,11.0480288,,
,mexec,,,,,,,mexec,http://www.mexeccareers.com/,46.3144754,11.0480288,,
,Microba Pty Ltd,,,,,,,Microba Pty Ltd,http://www.microba.com/,46.3144754,11.0480288,,
,Microbio,,,,,,,Microbio,http://microbio.com.au/,46.3144754,11.0480288,,
,MINIMUM bio Pty Ltd,,,,,,,MINIMUM bio Pty Ltd,https://minimumbio.com/,46.3144754,11.0480288,,
,Monash College,,,Melbourne,,,,Monash College,https://www.monashcollege.edu.au/,46.3144754,11.0480288,,
,Monash Innovation,,,Melbourne,,,,Monash Innovation,http://monash.edu/industry/,46.3144754,11.0480288,,
Funding sources,MRFF,,https://www.health.gov.au/our-work/medical-research-future-fund,,,,,,https://www.health.gov.au/our-work/medical-research-future-fund,46.3144754,11.0480288,,
,Murdoch Children's Research Institute,,,Melbourne,,,,Murdoch Children's Research Institute,http://www.mcri.edu.au/,46.3144754,11.0480288,,
,National Foundation for Medical Research and Innovation,,,,,,,National Foundation for Medical Research and Innovation,http://www.nfmri.org.au/,46.3144754,11.0480288,,
,Neo-Bionica,,,,,,,Neo-Bionica,https://neo-bionica.com/,46.3144754,11.0480288,,
,Newline Australia Insurance Pty Ltd,,,,,,,Newline Australia Insurance Pty Ltd,http://www.connectliability.com.au/,46.3144754,11.0480288,,
Clinical trials of Advanced Medicines,NKarta Therapeutics,,https://www.nkartatx.com/,,,,,,https://www.nkartatx.com/,46.3144754,11.0480288,,
Government representatives,NSW,,Health and Medical Research,Sydney,,Senior Medical Advisor,Laura Collie,,,46.3144754,11.0480288,,
Government representatives,NSW,,Health Infrastructure,Sydney,,"Project Director, NSW VVMF Facility",Phillip King,,,46.3144754,11.0480288,,
,NSW Government,,,Sydney,,,,NSW Government,http://investment.nsw.gov.au/,46.3144754,11.0480288,,
Supporting initiatives,NSW Stem Cell Network,professional community with an interest in the potential of stem cells to improve the human condition.,https://www.stemcellnetwork.org.au/,Sydney,,,Rachel Shparberg,,https://www.stemcellnetwork.org.au/,46.3144754,11.0480288,,
,Paradigm BioPharmaceuticals Ltd,,,,,,,Paradigm BioPharmaceuticals Ltd,https://paradigmbiopharma.com/,46.3144754,11.0480288,,
Supporting initiatives,PDA Australian chapter,"International community of scientists advancing pharmaceutical technology by connecting people, science and regulation.",https://www.pda.org/chapter-detail/asia-pacific-australia,,,,Micheal Schafferius,,https://www.pda.org/chapter-detail/asia-pacific-australia,46.3144754,11.0480288,,
Advanced Medicine tools providers - with physical presence in Australia,Peprotech,,,,,,,,,46.3144754,11.0480288,,
Advanced Medicine tools providers - with physical presence in Australia,Peprotech (purchased Thermo),cGMP recombinant proteins,,,,,,,,46.3144754,11.0480288,,
INTERNATIONAL BUT KNOWN TO SPONSOR,Pfansteihl,"cGMP produced, high purity, injectable grade excipients and bioprocessing solutions",https://pfanstiehl.com/,,,,Hem Sunder Reddy,,https://pfanstiehl.com/,46.3144754,11.0480288,,
Supporting initiatives,Pharmaceutical Society of Australia,"Government-recognised peak national professional pharmacy organisation representing all of Australias 37,000+ pharmacists working in all sectors and across all locations.",https://www.psa.org.au/,,,,,,https://www.psa.org.au/,46.3144754,11.0480288,,
,Pharmsite Pty Limited,,,,,,,Pharmsite Pty Limited,http://www.pharmsite.com.au/,46.3144754,11.0480288,,
Institutions treating patients with CGT pharmaceuticals,Prince Charles Hospital,,"virus specific T cells, MSC, allo CAR T",,,"Prof Rajiv Khanna, Daniel Chambers, Aditi Mehta, DO","Prof Rajiv Khanna, Daniel Chambers, Aditi Mehta, DO",,,46.3144754,11.0480288,,
Commercialisation strategy,Regulatory consulting,,,,,,,,,46.3144754,11.0480288,,
Other RM product developers,ReNerve,nerve repair sheaths,https://renerve.com.au/,,,,,,https://renerve.com.au/,46.3144754,11.0480288,,
INTERNATIONAL BUT KNOWN TO SPONSOR,SGS Vitrology,viral screening for pharmaceutical release,https://www.sgs.com/en/service-groups/biosafety-and-characterization-testing-solutions-for-biologics,,,,Philippe Grimm,,https://www.sgs.com/en/service-groups/biosafety-and-characterization-testing-solutions-for-biologics,46.3144754,11.0480288,,
,Snoretox Ltd,,,,,,,Snoretox Ltd,http://www.snoretox.com/,46.3144754,11.0480288,,
,Starpharma Holdings Limited,,,,,,,Starpharma Holdings Limited,http://www.starpharma.com/,46.3144754,11.0480288,,
Clinical CRO,Supply chain services,,,,,,,,,46.3144754,11.0480288,,
,Syntara,,,,,,,Syntara,https://www.pharmaxis.com.au/,46.3144754,11.0480288,,
,Teleaus Bioscience Health Pty Ltd (Genofax),,,,,,,Teleaus Bioscience Health Pty Ltd (Genofax),https://www.genofax.com/,46.3144754,11.0480288,,
,"The University of Newcastle, Knowledge Exchange and Enterprise (KEE)",,,,,,,"The University of Newcastle, Knowledge Exchange and Enterprise (KEE)",https://www.newcastle.edu.au/engage/business-and-industry/knowledge-exchange-and-enterprise,46.3144754,11.0480288,,
INTERNATIONAL BUT KNOWN TO SPONSOR,ToolGen,gene editing,http://www.toolgen.com/eng,,,,,,http://www.toolgen.com/eng,46.3144754,11.0480288,,
,Traders Macquarie Pty Ltd,,,,,,,Traders Macquarie Pty Ltd,,46.3144754,11.0480288,,
,Uniquest Pty Ltd,,,,,,,Uniquest Pty Ltd,http://www.uniquest.com.au/,46.3144754,11.0480288,,
,"University of Wollongong - Faculty of Science, Medicine and Health",,,,,,,"University of Wollongong - Faculty of Science, Medicine and Health",https://www.uow.edu.au/science-medicine-health/,46.3144754,11.0480288,,
,UNSW Industry & Innovation,,,,,,,UNSW Industry & Innovation,https://www.knowledgeexchange.unsw.edu.au/,46.3144754,11.0480288,,
,Harvest Integrated Research Organization Australia Pty Limited (HiRO),,,"202 Water St, Excelsior, MN 55331, USA",,,,Harvest Integrated Research Organization Australia Pty Limited (HiRO),https://en.harvestiro.com/,44.9034079,-93.56637441,,
,Integrated DNA Technologies Australia Pty Ltd,,,"1710 Commercial Park, Coralville, Iowa 52241 USA",,,,Integrated DNA Technologies Australia Pty Ltd,http://www.idtdna.com/,41.69590154,-91.61407986,,
,ide Group,,,"5066 West Chester Pike, Newtown Square PA 19073 USA",,,,ide Group,,39.9861022,-75.4094439,,
,"Collaborative Drug Discovery, Inc",,,"718 7th St NW, Washington, DC 20001",,,,"Collaborative Drug Discovery, Inc",https://www.collaborativedrug.com/,38.8991309,-77.0220918,,
,Fortrea,,,"8 Moore Drive, Durham, NC 27703",,,,Fortrea,https://www.fortrea.com/,35.9350542,-78.86598115,,
,Parexel International Pty Ltd,,,"2520 Meridian Parkway,, Durham, NC 27713",,,,Parexel International Pty Ltd,https://www.parexel.com/,35.9115293,-78.8975891,,
,Nutromics,,,"9276 Scranton Rd, San Diego, CA 92121, USA",,,,Nutromics,,32.891893,-117.202388,,
,Shengsheng Australia Pty Ltd,,,"Building 3, #327 Jifeng Road, Minhang District, Shanghai",,,,Shengsheng Australia Pty Ltd,https://www.ssintnl.com/,31.2415668,121.2502188,,
,SpeeDx Pty Ltd,,,"1400 Barbara Jordan Boulevard, Austin, TX 78723, United States",,,,SpeeDx Pty Ltd,,30.305211,-97.704803,,
,Douglas Pharmaceuticals Ltd,,,"2 Te Pai Pl, Henderson, Auckland 0610, New Zealand",,,,Douglas Pharmaceuticals Ltd,https://www.douglas.co.nz/,-36.8624998,174.6346086,,
Companies developing Advanced Medicines,BioOra,,,NZ,,,,,,-41.5000831,172.8344077,,
TGA licensed GMP facilities (and process development),Bioviros (NZ - not TGA),,https://bioviros.com/,New Zealand,,,,,https://bioviros.com/,-41.5000831,172.8344077,,
,Marken,,,"Unit 1/2 Distribution Lane, Sockburn, Christchurch, 8042 New Zealand",,,,Marken,,-43.54037925,172.5487134,,
